STARLINK-2633           
1 48435U 21040H   26068.74778098  .00014738  00000+0  52180-3 0  9994
2 48435  53.1552 164.8493 0001243  92.3494 267.7648 15.29371056266860
TEVEL2-6                
1 63215U 25052F   26068.64958975  .00021046  00000+0  70909-3 0  9996
2 63215  97.4016 325.0381 0004769  95.6604 264.5181 15.30760889 54861
